{
  "type": "FeatureCollection",
  "name": "world_2000",
  "crs": {
    "type": "name",
    "properties": {
      "name": "urn:ogc:def:crs:OGC:1.3:CRS84"
    }
  },
  "features": [
    {
      "type": "Feature",
      "properties": {
        "NAME": "Switzerland",
        "ABBREVN": "Switzerland",
        "SUBJECTO": "Switzerland",
        "BORDERPRECISION": 3,
        "PARTOF": "Switzerland"
      },
      "geometry": {
        "type": "MultiPolygon",
        "coordinates": [
          [
            [
              [
                9.464611086455566,
                47.28552206607227
              ],
              [
                9.560831102935058,
                47.155860506013674
              ],
              [
                9.520760569182617,
                47.06943853946094
              ],
              [
                9.800573381987792,
                47.041663728669924
              ],
              [
                9.804178270903808,
                46.97686728091602
              ],
              [
                10.051520380583984,
                46.86773642154102
              ],
              [
                10.311843905059082,
                47.0169750079668
              ],
              [
                10.408574137297851,
                46.96452673526172
              ],
              [
                10.395699534026367,
                46.88741263003711
              ],
              [
                10.338723215666992,
                46.74834784121875
              ],
              [
                10.389193567839843,
                46.65275915713672
              ],
              [
                10.372107538787109,
                46.566302858308596
              ],
              [
                10.23034385165332,
                46.58925589175586
              ],
              [
                10.151240381804687,
                46.66186483950977
              ],
              [
                10.023653063384277,
                46.62089880557422
              ],
              [
                9.987427744475585,
                46.4980541095293
              ],
              [
                10.097109827605468,
                46.438914857820315
              ],
              [
                9.994528803435546,
                46.25247534366016
              ],
              [
                9.884957346526367,
                46.402530275300784
              ],
              [
                9.67374041995166,
                46.37979086490039
              ],
              [
                9.642048868743164,
                46.32522162051563
              ],
              [
                9.544866594878417,
                46.31158407779102
              ],
              [
                9.44099715670703,
                46.37523611636524
              ],
              [
                9.376799616423828,
                46.53445013614063
              ],
              [
                9.210068735686523,
                46.4980541095293
              ],
              [
                9.218277010527832,
                46.34795721621875
              ],
              [
                9.026975664702636,
                46.17519339175586
              ],
              [
                9.018927607146484,
                45.93436010928516
              ],
              [
                8.890725168791992,
                45.86623724551563
              ],
              [
                8.717579874602539,
                46.00704535098438
              ],
              [
                8.761700663176757,
                46.088843904451174
              ],
              [
                8.636551446141077,
                46.11733232396882
              ],
              [
                8.621939692107421,
                46.12065847964649
              ],
              [
                8.381559404937011,
                46.28429754825
              ],
              [
                8.374507937041503,
                46.47075995059375
              ],
              [
                8.024794611541015,
                46.28884466739063
              ],
              [
                8.070898089019042,
                46.19337423892383
              ],
              [
                7.913880381194335,
                45.99897726626758
              ],
              [
                7.789928946105224,
                45.92696722598438
              ],
              [
                7.506788763610107,
                46.002513490632815
              ],
              [
                7.22479489764331,
                45.910934053376955
              ],
              [
                6.955283197966796,
                45.93890341372852
              ],
              [
                6.909935030547363,
                46.129806123689455
              ],
              [
                6.807361283529001,
                46.3939942785789
              ],
              [
                6.856912456646007,
                46.38532553426575
              ],
              [
                6.860532891338509,
                46.39567135854787
              ],
              [
                6.918682026631522,
                46.395206936852965
              ],
              [
                6.930871450577103,
                46.408351227966136
              ],
              [
                6.900908887160469,
                46.439689214556104
              ],
              [
                6.857901656145032,
                46.44947118554421
              ],
              [
                6.832041624067764,
                46.46683262184003
              ],
              [
                6.776516670160192,
                46.47343742783546
              ],
              [
                6.769073996154052,
                46.49260672183399
              ],
              [
                6.746094491147845,
                46.48710250305781
              ],
              [
                6.742657920910335,
                46.48864679559679
              ],
              [
                6.720869389583737,
                46.485596225120794
              ],
              [
                6.689435812086666,
                46.50021827068076
              ],
              [
                6.59204288810731,
                46.51769616755476
              ],
              [
                6.558787383904959,
                46.507196480082904
              ],
              [
                6.511094375255204,
                46.515893700404824
              ],
              [
                6.448639414796144,
                46.47363192883472
              ],
              [
                6.399366830301586,
                46.458688728465745
              ],
              [
                6.384794633556074,
                46.46430289385845
              ],
              [
                6.346871930666223,
                46.46094815254606
              ],
              [
                6.2912738204431,
                46.422658307372956
              ],
              [
                6.274123806967107,
                46.39014042210051
              ],
              [
                6.258912357066373,
                46.3925019868991
              ],
              [
                6.248222955748419,
                46.38605643507135
              ],
              [
                6.171351592047537,
                46.295829635984404
              ],
              [
                6.147796147590462,
                46.20673725502066
              ],
              [
                6.172219470275174,
                46.211872294689975
              ],
              [
                6.193824202060431,
                46.238419184332706
              ],
              [
                6.199127865688836,
                46.263974311208905
              ],
              [
                6.235320097735189,
                46.289106588791334
              ],
              [
                6.27784874181629,
                46.35037762441313
              ],
              [
                6.30354410983879,
                46.36604951821137
              ],
              [
                6.343528405304224,
                46.37010514332916
              ],
              [
                6.360944279594113,
                46.347862108145755
              ],
              [
                6.383716630705969,
                46.341576204815574
              ],
              [
                6.107919725981933,
                46.125533662751955
              ],
              [
                5.941489252654296,
                46.175540529207034
              ],
              [
                6.048988375273925,
                46.27716024966602
              ],
              [
                6.054619822112304,
                46.42192801089649
              ],
              [
                6.018594774810058,
                46.48354300113086
              ],
              [
                6.058368239012939,
                46.616065584138674
              ],
              [
                6.381529364196044,
                46.80413015933399
              ],
              [
                6.364301237670166,
                46.94601782412891
              ],
              [
                6.623342070189697,
                47.05401190371875
              ],
              [
                6.628670248595459,
                47.08795126529102
              ],
              [
                6.866266760436279,
                47.31022986026172
              ],
              [
                6.944232973662597,
                47.32567175479297
              ],
              [
                6.89196494540332,
                47.36581381411914
              ],
              [
                6.822959456053955,
                47.37817343325977
              ],
              [
                6.921917471495849,
                47.51408728213672
              ],
              [
                7.12291673144458,
                47.51100119204883
              ],
              [
                7.120884451476318,
                47.46775396914844
              ],
              [
                7.333420309630615,
                47.464664064363284
              ],
              [
                7.506581816283447,
                47.60370596499805
              ],
              [
                7.628408941832763,
                47.56352957339649
              ],
              [
                7.751046690551025,
                47.616065584138674
              ],
              [
                7.872660669890625,
                47.572799287751955
              ],
              [
                8.127995524016601,
                47.64388235659961
              ],
              [
                8.2530594201958,
                47.59443625064258
              ],
              [
                8.412250551787597,
                47.60370596499805
              ],
              [
                8.33202842196582,
                47.693343721345705
              ],
              [
                8.635127839061997,
                47.778572128696844
              ],
              [
                8.65083602389453,
                47.78298910708789
              ],
              [
                8.658565554229003,
                47.7149730548418
              ],
              [
                8.748005899993164,
                47.72116430850391
              ],
              [
                8.815385851470214,
                47.680972658113284
              ],
              [
                8.983487283772465,
                47.679618759299416
              ],
              [
                8.93572619268792,
                47.65900040517249
              ],
              [
                8.89424668674045,
                47.651981092802714
              ],
              [
                8.859761867303298,
                47.65720259885761
              ],
              [
                8.906531941740655,
                47.64470239066858
              ],
              [
                8.960973389973663,
                47.65681014096839
              ],
              [
                8.98349781779857,
                47.66997824848036
              ],
              [
                9.065714698442651,
                47.674216536574775
              ],
              [
                9.090169214235457,
                47.67299879536117
              ],
              [
                9.09631748974732,
                47.666038767172346
              ],
              [
                9.177931706890412,
                47.664332143247975
              ],
              [
                9.191228667349208,
                47.648048045875626
              ],
              [
                9.300064856849982,
                47.61072946127637
              ],
              [
                9.382401971062464,
                47.5712252392877
              ],
              [
                9.38681144658924,
                47.544314745924304
              ],
              [
                9.437436949905864,
                47.518945191698386
              ],
              [
                9.435761421667744,
                47.506522607680544
              ],
              [
                9.466216843906906,
                47.49633046022211
              ],
              [
                9.481890678413858,
                47.48171362179569
              ],
              [
                9.52988310330231,
                47.48141384927814
              ],
              [
                9.53932315928003,
                47.4872009429331
              ],
              [
                9.58434775790332,
                47.40905722232227
              ],
              [
                9.464611086455566,
                47.28552206607227
              ]
            ]
          ],
          [
            [
              [
                9.1985578866875,
                47.67788656802539
              ],
              [
                9.216057312656227,
                47.67100283816657
              ],
              [
                9.217880454657571,
                47.666308565142764
              ],
              [
                9.12427050641381,
                47.670700736835244
              ],
              [
                9.118142444734893,
                47.67853423872031
              ],
              [
                9.1985578866875,
                47.67788656802539
              ]
            ]
          ]
        ]
      }
    }
  ]
}